[{"OBJECT_NAME":"KUIPER-00178","OBJECT_ID":"2026-030D","EPOCH":"2026-03-05T17:32:05.275968","MEAN_MOTION":15.35354027,"ECCENTRICITY":0.0006183,"INCLINATION":51.8836,"RA_OF_ASC_NODE":238.2871,"ARG_OF_PERICENTER":34.8375,"MEAN_ANOMALY":325.3015,"EPHEMERIS_TYPE":0,"CLASSIFICATION_TYPE":"U","NORAD_CAT_ID":67767,"ELEMENT_SET_NO":999,"REV_AT_EPOCH":448,"BSTAR":0.00074542,"MEAN_MOTION_DOT":0.00025706,"MEAN_MOTION_DDOT":0},{"OBJECT_NAME":"KUIPER-00180","OBJECT_ID":"2026-030E","EPOCH":"2026-03-05T16:43:08.490720","MEAN_MOTION":15.32112846,"ECCENTRICITY":0.0014335,"INCLINATION":51.8807,"RA_OF_ASC_NODE":238.7941,"ARG_OF_PERICENTER":56.8841,"MEAN_ANOMALY":303.3517,"EPHEMERIS_TYPE":0,"CLASSIFICATION_TYPE":"U","NORAD_CAT_ID":67768,"ELEMENT_SET_NO":999,"REV_AT_EPOCH":447,"BSTAR":0.00037583,"MEAN_MOTION_DOT":0.00011504,"MEAN_MOTION_DDOT":0},{"OBJECT_NAME":"KUIPER-00197","OBJECT_ID":"2026-030F","EPOCH":"2026-03-05T17:14:52.860768","MEAN_MOTION":15.36224153,"ECCENTRICITY":0.000139,"INCLINATION":51.8834,"RA_OF_ASC_NODE":238.2102,"ARG_OF_PERICENTER":50.0137,"MEAN_ANOMALY":310.0971,"EPHEMERIS_TYPE":0,"CLASSIFICATION_TYPE":"U","NORAD_CAT_ID":67769,"ELEMENT_SET_NO":999,"REV_AT_EPOCH":448,"BSTAR":0.00091418,"MEAN_MOTION_DOT":0.00032529,"MEAN_MOTION_DDOT":0},{"OBJECT_NAME":"KUIPER-00198","OBJECT_ID":"2026-030G","EPOCH":"2026-03-05T18:55:41.466432","MEAN_MOTION":15.3587069,"ECCENTRICITY":0.0003403,"INCLINATION":51.8813,"RA_OF_ASC_NODE":237.9228,"ARG_OF_PERICENTER":36.5012,"MEAN_ANOMALY":323.6206,"EPHEMERIS_TYPE":0,"CLASSIFICATION_TYPE":"U","NORAD_CAT_ID":67770,"ELEMENT_SET_NO":999,"REV_AT_EPOCH":449,"BSTAR":0.00089549,"MEAN_MOTION_DOT":0.00031493,"MEAN_MOTION_DDOT":0},{"OBJECT_NAME":"KUIPER-00199","OBJECT_ID":"2026-030H","EPOCH":"2026-03-05T17:53:51.295776","MEAN_MOTION":15.34187224,"ECCENTRICITY":0.0010385,"INCLINATION":51.8813,"RA_OF_ASC_NODE":238.3778,"ARG_OF_PERICENTER":49.7237,"MEAN_ANOMALY":310.4654,"EPHEMERIS_TYPE":0,"CLASSIFICATION_TYPE":"U","NORAD_CAT_ID":67771,"ELEMENT_SET_NO":999,"REV_AT_EPOCH":448,"BSTAR":0.00075983,"MEAN_MOTION_DOT":0.00025269,"MEAN_MOTION_DDOT":0},{"OBJECT_NAME":"KUIPER-00200","OBJECT_ID":"2026-030J","EPOCH":"2026-03-05T18:36:21.843648","MEAN_MOTION":15.36809588,"ECCENTRICITY":0.0001136,"INCLINATION":51.8805,"RA_OF_ASC_NODE":237.8385,"ARG_OF_PERICENTER":208.7447,"MEAN_ANOMALY":151.3477,"EPHEMERIS_TYPE":0,"CLASSIFICATION_TYPE":"U","NORAD_CAT_ID":67772,"ELEMENT_SET_NO":999,"REV_AT_EPOCH":449,"BSTAR":-0.00074354,"MEAN_MOTION_DOT":-0.00027453,"MEAN_MOTION_DDOT":0},{"OBJECT_NAME":"KUIPER-00203","OBJECT_ID":"2026-030K","EPOCH":"2026-03-05T16:00:00.999936","MEAN_MOTION":15.23098075,"ECCENTRICITY":0.0011541,"INCLINATION":51.882,"RA_OF_ASC_NODE":239.0285,"ARG_OF_PERICENTER":51.4088,"MEAN_ANOMALY":78.6727,"EPHEMERIS_TYPE":0,"CLASSIFICATION_TYPE":"U","NORAD_CAT_ID":67773,"ELEMENT_SET_NO":999,"REV_AT_EPOCH":303,"BSTAR":-0.062835,"MEAN_MOTION_DOT":-0.01369135,"MEAN_MOTION_DDOT":0},{"OBJECT_NAME":"KUIPER-00205","OBJECT_ID":"2026-030L","EPOCH":"2026-03-05T17:15:57.677184","MEAN_MOTION":15.36210795,"ECCENTRICITY":0.0003012,"INCLINATION":51.8812,"RA_OF_ASC_NODE":238.2104,"ARG_OF_PERICENTER":10.1843,"MEAN_ANOMALY":349.9204,"EPHEMERIS_TYPE":0,"CLASSIFICATION_TYPE":"U","NORAD_CAT_ID":67774,"ELEMENT_SET_NO":999,"REV_AT_EPOCH":448,"BSTAR":0.00089064,"MEAN_MOTION_DOT":0.00031667,"MEAN_MOTION_DDOT":0},{"OBJECT_NAME":"KUIPER-00208","OBJECT_ID":"2026-030M","EPOCH":"2026-03-05T18:13:02.503200","MEAN_MOTION":15.32378848,"ECCENTRICITY":0.0014598,"INCLINATION":51.8832,"RA_OF_ASC_NODE":238.4719,"ARG_OF_PERICENTER":49.5668,"MEAN_ANOMALY":310.6588,"EPHEMERIS_TYPE":0,"CLASSIFICATION_TYPE":"U","NORAD_CAT_ID":67775,"ELEMENT_SET_NO":999,"REV_AT_EPOCH":448,"BSTAR":0.0011804,"MEAN_MOTION_DOT":0.00037381,"MEAN_MOTION_DDOT":0},{"OBJECT_NAME":"KUIPER-00209","OBJECT_ID":"2026-030N","EPOCH":"2026-03-05T15:13:12.439200","MEAN_MOTION":15.3055728,"ECCENTRICITY":0.0013085,"INCLINATION":51.8818,"RA_OF_ASC_NODE":239.1302,"ARG_OF_PERICENTER":56.1169,"MEAN_ANOMALY":304.1058,"EPHEMERIS_TYPE":0,"CLASSIFICATION_TYPE":"U","NORAD_CAT_ID":67776,"ELEMENT_SET_NO":999,"REV_AT_EPOCH":446,"BSTAR":-0.002005,"MEAN_MOTION_DOT":-0.00060155,"MEAN_MOTION_DDOT":0},{"OBJECT_NAME":"KUIPER-00213","OBJECT_ID":"2026-030P","EPOCH":"2026-03-05T18:13:57.559008","MEAN_MOTION":15.32579732,"ECCENTRICITY":0.0014887,"INCLINATION":51.8805,"RA_OF_ASC_NODE":238.4668,"ARG_OF_PERICENTER":53.463,"MEAN_ANOMALY":306.7723,"EPHEMERIS_TYPE":0,"CLASSIFICATION_TYPE":"U","NORAD_CAT_ID":67777,"ELEMENT_SET_NO":999,"REV_AT_EPOCH":448,"BSTAR":0.00072412,"MEAN_MOTION_DOT":0.00022891,"MEAN_MOTION_DDOT":0},{"OBJECT_NAME":"KUIPER-00214","OBJECT_ID":"2026-030Q","EPOCH":"2026-03-05T17:06:39.043296","MEAN_MOTION":15.36554804,"ECCENTRICITY":4.73e-5,"INCLINATION":51.8838,"RA_OF_ASC_NODE":238.175,"ARG_OF_PERICENTER":209.7013,"MEAN_ANOMALY":150.3946,"EPHEMERIS_TYPE":0,"CLASSIFICATION_TYPE":"U","NORAD_CAT_ID":67778,"ELEMENT_SET_NO":999,"REV_AT_EPOCH":448,"BSTAR":0.00070055,"MEAN_MOTION_DOT":0.00025081,"MEAN_MOTION_DDOT":0},{"OBJECT_NAME":"KUIPER-00215","OBJECT_ID":"2026-030R","EPOCH":"2026-03-05T17:51:30.730752","MEAN_MOTION":15.34282976,"ECCENTRICITY":0.0010059,"INCLINATION":51.8844,"RA_OF_ASC_NODE":238.376,"ARG_OF_PERICENTER":49.1057,"MEAN_ANOMALY":311.0799,"EPHEMERIS_TYPE":0,"CLASSIFICATION_TYPE":"U","NORAD_CAT_ID":67779,"ELEMENT_SET_NO":999,"REV_AT_EPOCH":448,"BSTAR":0.00074525,"MEAN_MOTION_DOT":0.00024849,"MEAN_MOTION_DDOT":0},{"OBJECT_NAME":"KUIPER-00218","OBJECT_ID":"2026-030S","EPOCH":"2026-03-05T17:37:30.479520","MEAN_MOTION":15.35006233,"ECCENTRICITY":0.0006696,"INCLINATION":51.8838,"RA_OF_ASC_NODE":238.3119,"ARG_OF_PERICENTER":39.6512,"MEAN_ANOMALY":320.4963,"EPHEMERIS_TYPE":0,"CLASSIFICATION_TYPE":"U","NORAD_CAT_ID":67780,"ELEMENT_SET_NO":999,"REV_AT_EPOCH":448,"BSTAR":0.00099689,"MEAN_MOTION_DOT":0.00034166,"MEAN_MOTION_DDOT":0},{"OBJECT_NAME":"KUIPER-00220","OBJECT_ID":"2026-030T","EPOCH":"2026-03-05T17:46:25.783680","MEAN_MOTION":15.34579695,"ECCENTRICITY":0.0008351,"INCLINATION":51.8815,"RA_OF_ASC_NODE":238.345,"ARG_OF_PERICENTER":44.9688,"MEAN_ANOMALY":315.1973,"EPHEMERIS_TYPE":0,"CLASSIFICATION_TYPE":"U","NORAD_CAT_ID":67781,"ELEMENT_SET_NO":999,"REV_AT_EPOCH":448,"BSTAR":0.00072982,"MEAN_MOTION_DOT":0.00024547,"MEAN_MOTION_DDOT":0},{"OBJECT_NAME":"KUIPER-00222","OBJECT_ID":"2026-030U","EPOCH":"2026-03-05T16:45:19.702080","MEAN_MOTION":15.32411423,"ECCENTRICITY":0.0017132,"INCLINATION":51.8796,"RA_OF_ASC_NODE":238.8016,"ARG_OF_PERICENTER":51.8883,"MEAN_ANOMALY":308.3643,"EPHEMERIS_TYPE":0,"CLASSIFICATION_TYPE":"U","NORAD_CAT_ID":67782,"ELEMENT_SET_NO":999,"REV_AT_EPOCH":447,"BSTAR":0.00039689,"MEAN_MOTION_DOT":0.00012303,"MEAN_MOTION_DDOT":0},{"OBJECT_NAME":"KUIPER-00223","OBJECT_ID":"2026-030V","EPOCH":"2026-03-05T17:56:21.261120","MEAN_MOTION":15.34030274,"ECCENTRICITY":0.0012219,"INCLINATION":51.883,"RA_OF_ASC_NODE":238.3941,"ARG_OF_PERICENTER":48.0639,"MEAN_ANOMALY":312.1386,"EPHEMERIS_TYPE":0,"CLASSIFICATION_TYPE":"U","NORAD_CAT_ID":67783,"ELEMENT_SET_NO":999,"REV_AT_EPOCH":448,"BSTAR":-8.7492e-5,"MEAN_MOTION_DOT":-3.315e-5,"MEAN_MOTION_DDOT":0}]
